{"fetched_at":"2026-07-18T17:30:11.361Z","source":"https://celestrak.org/NORAD/elements/gp.php?NAME=PLEIADES&FORMAT=JSON","constellation":"pleiades-neo","records":[{"OBJECT_NAME":"PLEIADES NEO 3","OBJECT_ID":"2021-034A","EPOCH":"2026-07-18T07:38:02.453280","CLASSIFICATION_TYPE":"U","MEAN_MOTION":14.81673466,"ECCENTRICITY":0.00014073,"INCLINATION":97.894,"RA_OF_ASC_NODE":273.6371,"ARG_OF_PERICENTER":96.7358,"MEAN_ANOMALY":263.4015,"EPHEMERIS_TYPE":0,"NORAD_CAT_ID":48268,"ELEMENT_SET_NO":999,"REV_AT_EPOCH":28226,"BSTAR":0.00011851144,"MEAN_MOTION_DOT":0.00000881,"MEAN_MOTION_DDOT":0},{"OBJECT_NAME":"PLEIADES NEO 4","OBJECT_ID":"2021-073E","EPOCH":"2026-07-18T06:49:24.093696","CLASSIFICATION_TYPE":"U","MEAN_MOTION":14.81673563,"ECCENTRICITY":0.00012899,"INCLINATION":97.8937,"RA_OF_ASC_NODE":273.5995,"ARG_OF_PERICENTER":95.7612,"MEAN_ANOMALY":264.3748,"EPHEMERIS_TYPE":0,"NORAD_CAT_ID":49070,"ELEMENT_SET_NO":999,"REV_AT_EPOCH":26597,"BSTAR":0.000008722425,"MEAN_MOTION_DOT":1.7e-7,"MEAN_MOTION_DDOT":0}]}
